{"fetched_at":"2026-03-29T02:12:04Z","count":15717,"tles":[{"name":"USA 283","line1":"1 43339U 18036A   26086.43239280  .00000000  00000+0  00000+0 0  9991","line2":"2 43339   0.0191 155.1188 0000120 145.4214 174.0767  1.00268377 24471","category":"Military"}]}