{
  "norad_id": 43339,
  "name": "USA 283",
  "history": [
    {
      "epoch": "2026-03-27T10:22:38.737920",
      "apogee_km": 35788.05636261341,
      "perigee_km": 35787.04438611643,
      "latitude_deg": -0.0024006525621264136,
      "longitude_deg": -100.59029119997285,
      "semi_major_axis_km": 42165.68737436493,
      "eccentricity": 1.2e-05,
      "inclination_deg": 0.0191,
      "raan_deg": 155.1188,
      "arg_perigee_deg": 145.4214,
      "mean_anomaly_deg": 174.0767,
      "mean_motion_rev_day": 1.00268377
    }
  ]
}